NORAD_CAT_ID,OBJECT_NAME,OBJECT_TYPE,EPOCH,MEAN_MOTION,ECCENTRICITY,INCLINATION,RA_OF_ASC_NODE,ARG_OF_PERICENTER,MEAN_ANOMALY,BSTAR,MEAN_MOTION_DOT,MEAN_MOTION_DDOT,TLE_LINE0,TLE_LINE1,TLE_LINE2,SEMIMAJOR_AXIS,PERIOD,APOGEE,PERIGEE,DECAYED
52986.0,STARLINK-4260,PAYLOAD,2022-11-26 00:54:00,15.08858818,0.0001834,53.2158,79.5748,39.9305,320.1822,0.00012254,1.664e-05,0.0,0 STARLINK-4260,1 52986U 22076A   22330.03750450  .00001664  00000-0  12254-3 0  9995,2 52986  53.2158  79.5748 0001834  39.9305 320.1822 15.08858818 22207,6917.823,95.436,540.957,538.419,0.0
52986.0,STARLINK-4260,PAYLOAD,2022-11-26 13:37:05,15.08856027,0.0002075,53.2152,77.1961,46.0395,314.0768,6.7976e-05,7.94e-06,0.0,0 STARLINK-4260,1 52986U 22076A   22330.56742380  .00000794  00000-0  67976-4 0  9991,2 52986  53.2152  77.1961 0002075  46.0395 314.0768 15.08856027 21815,6917.831,95.437,541.132,538.261,0.0
52986.0,STARLINK-4260,PAYLOAD,2022-11-26 16:47:51,15.08851284,0.000197,53.2156,76.602,42.3983,317.7161,9.2195e-05,1.18e-05,0.0,0 STARLINK-4260,1 52986U 22076A   22330.69990482  .00001180  00000-0  92195-4 0  9994,2 52986  53.2156  76.6020 0001970  42.3983 317.7161 15.08851284 22306,6917.846,95.437,541.0740000000002,538.3480000000002,0.0
52986.0,STARLINK-4260,PAYLOAD,2022-11-27 07:06:20,15.0884457,0.0002126,53.2155,73.9252,42.4191,317.6965,-3.246e-05,-8.05e-06,0.0,0 STARLINK-4260,1 52986U 22076A   22331.29607167 -.00000805  00000-0 -32460-4 0  9990,2 52986  53.2155  73.9252 0002126  42.4191 317.6965 15.08844570 22398,6917.866,95.437,541.202,538.261,0.0
52986.0,STARLINK-4260,PAYLOAD,2022-11-27 13:27:53,15.08843464,0.0002114,53.215,72.7357,46.2929,313.8238,-6.5384e-05,-1.329e-05,0.0,0 STARLINK-4260,1 52986U 22076A   22331.56103159 -.00001329  00000-0 -65384-4 0  9995,2 52986  53.2150  72.7357 0002114  46.2929 313.8238 15.08843464 21968,6917.87,95.437,541.197,538.2719999999998,0.0
52986.0,STARLINK-4260,PAYLOAD,2022-11-28 06:57:08,15.0883212,0.0002021,53.2163,69.4651,42.6555,317.4594,-0.00012085,-2.211e-05,0.0,0 STARLINK-4260,1 52986U 22076A   22332.28968051 -.00002211  00000-0 -12085-3 0  9995,2 52986  53.2163  69.4651 0002021  42.6555 317.4594 15.08832120 22541,6917.904,95.438,541.168,538.371,0.0
52986.0,STARLINK-4260,PAYLOAD,2022-11-28 13:18:40,15.08840404,0.0002017,53.2149,68.275,40.8027,319.3116,-4.4876e-05,-1.002e-05,0.0,0 STARLINK-4260,1 52986U 22076A   22332.55463302 -.00001002  00000-0 -44876-4 0  9995,2 52986  53.2149  68.2750 0002017  40.8027 319.3116 15.08840404 22580,6917.879,95.438,541.139,538.349,0.0
52986.0,STARLINK-4260,PAYLOAD,2022-11-29 05:12:32,15.08828296,0.0002047,53.2172,65.3033,40.4007,319.7137,-1.9687e-05,-6.01e-06,0.0,0 STARLINK-4260,1 52986U 22076A   22333.21704224 -.00000601  00000-0 -19687-4 0  9996,2 52986  53.2172  65.3033 0002047  40.4007 319.7137 15.08828296 22688,6917.916,95.438,541.197,538.365,0.0
52986.0,STARLINK-4260,PAYLOAD,2022-11-29 06:47:55,15.08826442,0.0002043,53.2167,65.0054,41.8413,318.2735,-1.4169e-05,-5.14e-06,0.0,0 STARLINK-4260,1 52986U 22076A   22333.28328348 -.00000514  00000-0 -14169-4 0  9995,2 52986  53.2167  65.0054 0002043  41.8413 318.2735 15.08826442 22223,6917.922,95.438,541.2,538.373,0.0
52986.0,STARLINK-4260,PAYLOAD,2022-11-29 13:09:27,15.08835247,0.0002049,53.2163,63.8155,37.0296,323.0837,4.9221e-05,4.95e-06,0.0,0 STARLINK-4260,1 52986U 22076A   22333.54823697  .00000495  00000-0  49221-4 0  9994,2 52986  53.2163  63.8155 0002049  37.0296 323.0837 15.08835247 22735,6917.895,95.438,541.177,538.342,0.0
52986.0,STARLINK-4260,PAYLOAD,2022-11-30 13:00:15,15.08834896,0.0002132,53.2168,59.3556,39.9895,320.1254,3.3768e-05,2.49e-06,0.0,0 STARLINK-4260,1 52986U 22076A   22334.54184301  .00000249  00000-0  33768-4 0  9993,2 52986  53.2168  59.3556 0002132  39.9895 320.1254 15.08834896 22419,6917.896,95.438,541.236,538.286,0.0
52986.0,STARLINK-4260,PAYLOAD,2022-11-30 16:11:01,15.08837997,0.0002082,53.2173,58.7615,35.8557,324.2575,4.727e-05,4.64e-06,0.0,0 STARLINK-4260,1 52986U 22076A   22334.67432055  .00000464  00000-0  47270-4 0  9991,2 52986  53.2173  58.7615 0002082  35.8557 324.2575 15.08837997 22908,6917.887,95.438,541.192,538.311,0.0
52986.0,STARLINK-4260,PAYLOAD,2022-12-01 04:54:06,15.08835529,0.0002026,53.2169,56.3812,35.1046,325.0079,-3.8229e-06,-3.49e-06,0.0,0 STARLINK-4260,1 52986U 22076A   22335.20424689 -.00000349  00000-0 -38229-5 0  9994,2 52986  53.2169  56.3812 0002026  35.1046 325.0079 15.08835529 22514,6917.894,95.438,541.161,538.357,0.0
52986.0,STARLINK-4260,PAYLOAD,2022-12-02 06:20:16,15.0884318,0.0002041,53.2159,51.62300000000001,34.2648,325.8476,3.188e-05,2.19e-06,0.0,0 STARLINK-4260,1 52986U 22076A   22336.26408126  .00000219  00000-0  31880-4 0  9998,2 52986  53.2159  51.6230 0002041  34.2648 325.8476 15.08843180 23141,6917.871,95.437,541.148,538.3240000000002,0.0
52986.0,STARLINK-4260,PAYLOAD,2022-12-03 12:32:36,15.08837108,0.0002268,53.2175,45.9745,37.4393,322.6757,-3.022e-05,-7.69e-06,0.0,0 STARLINK-4260,1 52986U 22076A   22337.52264600 -.00000769  00000-0 -30220-4 0  9994,2 52986  53.2175  45.9745 0002268  37.4393 322.6757 15.08837108 23330,6917.889,95.438,541.323,538.185,0.0
52986.0,STARLINK-4260,PAYLOAD,2022-12-04 04:26:27,15.08843479,0.0002228,53.218,43.0007,34.0335,326.0799,1.3062e-05,-8e-07,0.0,0 STARLINK-4260,1 52986U 22076A   22338.18503936 -.00000080  00000-0  13062-4 0  9995,2 52986  53.2180  43.0007 0002228  34.0335 326.0799 15.08843479 23434,6917.87,95.437,541.276,538.193,0.0
52986.0,STARLINK-4260,PAYLOAD,2022-12-04 10:48:00,15.08838939,0.0002248,53.2172,41.8111,33.1554,326.9579,-1.9079e-05,-5.92e-06,0.0,0 STARLINK-4260,1 52986U 22076A   22338.45000273 -.00000592  00000-0 -19079-4 0  9994,2 52986  53.2172  41.8111 0002248  33.1554 326.9579 15.08838939 23005,6917.884,95.438,541.304,538.193,0.0
52986.0,STARLINK-4260,PAYLOAD,2022-12-04 13:58:46,15.08838886,0.0002242,53.2169,41.216,32.8408,327.2723,-2.4493e-05,-6.78e-06,0.0,0 STARLINK-4260,1 52986U 22076A   22338.58248282 -.00000678  00000-0 -24493-4 0  9993,2 52986  53.2169  41.2160 0002242  32.8408 327.2723 15.08838886 23025,6917.884,95.438,541.3,538.198,0.0
52986.0,STARLINK-4260,PAYLOAD,2022-12-05 04:17:15,15.08830896,0.0002376,53.2164,38.5383,35.5854,324.5296,-0.00010206,-1.912e-05,0.0,0 STARLINK-4260,1 52986U 22076A   22339.17865416 -.00001912  00000-0 -10206-3 0  9991,2 52986  53.2164  38.5383 0002376  35.5854 324.5296 15.08830896 23588,6917.908,95.438,541.4169999999998,538.13,0.0
52986.0,STARLINK-4260,PAYLOAD,2022-12-05 10:38:47,15.08840419,0.0002328,53.2144,37.3503,33.3638,326.7501,-2.7987e-05,-7.34e-06,0.0,0 STARLINK-4260,1 52986U 22076A   22339.44360581 -.00000734  00000-0 -27987-4 0  9990,2 52986  53.2144  37.3503 0002328  33.3638 326.7501 15.08840419 23620,6917.879,95.438,541.355,538.134,0.0
52986.0,STARLINK-4260,PAYLOAD,2022-12-05 15:24:56,15.08842757,0.0002472,53.2167,36.4579,36.9366,323.1796,9.6793e-05,1.253e-05,0.0,0 STARLINK-4260,1 52986U 22076A   22339.64232037  .00001253  00000-0  96793-4 0  9992,2 52986  53.2167  36.4579 0002472  36.9366 323.1796 15.08842757 23180,6917.871999999999,95.437,541.447,538.0269999999998,0.0
52986.0,STARLINK-4260,PAYLOAD,2022-12-06 04:08:01,15.08844677,0.0002445,53.2166,34.0787,36.5965,323.5194,8.283100000000001e-05,1.03e-05,0.0,0 STARLINK-4260,1 52986U 22076A   22340.17223866  .00001030  00000-0  82831-4 0  9993,2 52986  53.2166  34.0787 0002445  36.5965 323.5194 15.08844677 23735,6917.866,95.437,541.423,538.04,0.0
52986.0,STARLINK-4260,PAYLOAD,2022-12-06 10:29:34,15.08839079,0.0002402,53.2168,32.8886,37.9486,322.1675,3.5016e-05,2.69e-06,0.0,0 STARLINK-4260,1 52986U 22076A   22340.43720355  .00000269  00000-0  35016-4 0  9993,2 52986  53.2168  32.8886 0002402  37.9486 322.1675 15.08839079 23301,6917.8830000000025,95.438,541.41,538.087,0.0
52986.0,STARLINK-4260,PAYLOAD,2022-12-06 13:40:20,15.08834874,0.0002419,53.2169,32.2952,37.6782,322.4379,3.1614e-05,2.15e-06,0.0,0 STARLINK-4260,1 52986U 22076A   22340.56968672  .00000215  00000-0  31614-4 0  9994,2 52986  53.2169  32.2952 0002419  37.6782 322.4379 15.08834874 23799,6917.896,95.438,541.434,538.0880000000002,0.0
52986.0,STARLINK-4260,PAYLOAD,2022-12-07 19:52:41,15.08833473,0.000239,53.2176,26.646,35.0568,325.0581,-0.00013267,-2.399e-05,0.0,0 STARLINK-4260,1 52986U 22076A   22341.82825979 -.00002399  00000-0 -13267-3 0  9996,2 52986  53.2176  26.6460 0002390  35.0568 325.0581 15.08833473 23989,6917.9,95.438,541.419,538.112,0.0
52986.0,STARLINK-4260,PAYLOAD,2022-12-08 03:49:36,15.08840731,0.0002387,53.2176,25.158,36.9045,323.2111,7.0431e-06,-1.76e-06,0.0,0 STARLINK-4260,1 52986U 22076A   22342.15945149 -.00000176  00000-0  70431-5 0  9993,2 52986  53.2176  25.1580 0002387  36.9045 323.2111 15.08840731 24033,6917.878000000002,95.438,541.394,538.092,0.0
52986.0,STARLINK-4260,PAYLOAD,2022-12-08 10:11:08,15.0884572,0.0002466,53.2177,23.9688,25.0651,335.046,6.0675e-05,6.78e-06,0.0,0 STARLINK-4260,1 52986U 22076A   22342.42440638  .00000678  00000-0  60675-4 0  9990,2 52986  53.2177  23.9688 0002466  25.0651 335.0460 15.08845720 23602,6917.863,95.437,541.434,538.0219999999998,0.0
52986.0,STARLINK-4260,PAYLOAD,2022-12-08 19:43:24,15.08876875,0.0001593,53.2176,22.187,327.681,32.4085,0.00039977,6.086e-05,0.0,0 STARLINK-4260,1 52986U 22076A   22342.82180645  .00006086  00000-0  39977-3 0  9992,2 52986  53.2176  22.1870 0001593 327.6810  32.4085 15.08876875 24138,6917.768,95.435,540.735,538.531,0.0
52986.0,STARLINK-4260,PAYLOAD,2022-12-09 13:12:41,15.08846852,0.0001219,53.2175,18.9167,321.4306,38.6599,-0.00051162,-8.422e-05,0.0,0 STARLINK-4260,1 52986U 22076A   22343.55048470 -.00008422  00000-0 -51162-3 0  9990,2 52986  53.2175  18.9167 0001219 321.4306  38.6599 15.08846852 24248,6917.859,95.437,540.568,538.881,0.0
